0 COSMOS 2490
1 39485U 13076C   19364.72144570 +.00000052 +00000-0 +30626-3 0  9996
2 39485 082.4811 199.4932 0020807 215.4348 144.5344 12.42873382272866
0 BREEZE-KM R/B
1 39486U 13076D   19364.78377326 +.00000038 +00000-0 +94633-4 0  9993
2 39486 082.4836 093.1353 0233526 148.8290 212.6909 12.82949340281574
0 EXPRESS AM-5
1 39487U 13077A   19364.88509913 -.00000277 +00000-0 +00000-0 0  9992
2 39487 000.0178 242.5391 0000960 119.9832 195.1716 01.00269840022692
0 EXPRESS AM-5
1 39487U 13077A   19365.84655236 -.00000274  00000-0  00000+0 0  9995
2 39487   0.0167 237.6674 0001077 122.0594 185.0395  1.00269438 22693
0 BREEZE-M R/B
1 39488U 13077B   19364.80662799 -.00000157 +00000-0 +00000-0 0  9994
2 39488 004.4257 073.0828 0509763 134.8336 229.1627 00.89565647019539
0 COSMOS 2493 (SKRL 756)
1 39490U 13078A   19364.91547541 +.00000177 +00000-0 +16295-4 0  9995
2 39490 082.4180 015.4152 0016979 195.2689 164.8019 14.88546844325887
0 COSMOS 2493 (SKRL 756)
1 39490U 13078A   19365.78935268  .00000196  00000-0  18421-4 0  9992
2 39490  82.4180  14.5786 0017059 192.3116 167.7688 14.88547205326318
0 COSMOS 2493 (SKRL 756)
1 39490U 13078A   19365.45324606  .00000192  00000-0  17939-4 0  9993
2 39490  82.4180  14.9004 0017028 193.4516 166.6250 14.88547070326264
0 COSMOS 2494 (SKRL 756)
1 39491U 13078B   19365.46464352  .00000203  00000-0  18442-4 0  9991
2 39491  82.4180  10.5558 0022179 177.0639 183.0714 14.89926275326467
0 COSMOS 2494 (SKRL 756)
1 39491U 13078B   19364.92736985 +.00000210 +00000-0 +19144-4 0  9993
2 39491 082.4180 011.0713 0022126 178.8435 181.2838 14.89926153326306
0 COSMOS 2494 (SKRL 756)
1 39491U 13078B   19365.80043954  .00000208  00000-0  18935-4 0  9992
2 39491  82.4180  10.2337 0022199 175.9300 184.2103 14.89926381326512
0 AIST 1
1 39492U 13078C   19365.80201078  .00000142  00000-0  12855-4 0  9998
2 39492  82.4187  15.9059 0019090 199.2070 160.8432 14.87867468326144
0 AIST 1
1 39492U 13078C   19365.46575085  .00000136  00000-0  12101-4 0  9999
2 39492  82.4188  16.2277 0019099 200.3202 159.7264 14.87867325326097
0 BREEZE-M R/B
1 39494U 13073C   19364.11802462 -.00000210 +00000-0 -37501+0 0  9990
2 39494 029.8750 046.0120 7635882 172.8890 213.4463 01.09862539023325
0 COSMOS 2491
1 39497U 13076E   19364.89811781 +.00000004 +00000-0 -39236-4 0  9997
2 39497 082.4840 200.4456 0012845 197.5436 162.5202 12.43439511272075
0 COSMOS 2491
1 39497U 13076E   19365.86365474  .00000010  00000-0 -22656-5 0  9994
2 39497  82.4840 199.8435 0012882 195.3846 164.6844 12.43439525272772
0 COSMOS 2491
1 39497U 13076E   19365.46134769  .00000007  00000-0 -22506-4 0  9990
2 39497  82.4840 200.0944 0012862 196.2845 163.7824 12.43439526272723
0 GSAT 14
1 39498U 14001A   19365.44628484 -.00000072  00000-0  00000+0 0  9992
2 39498   0.0447 273.6762 0003859   1.3831  59.1747  1.00272065 21913
0 GSAT 14
1 39498U 14001A   19364.81021483 -.00000074 +00000-0 +00000-0 0  9991
2 39498 000.0459 274.4423 0003829 000.4108 189.7686 01.00272034021764
0 THAICOM 6
1 39500U 14002A   19364.79055109 -.00000118 +00000-0 +00000-0 0  9994
2 39500 000.0749 120.9076 0001497 082.9019 258.2053 01.00270742021791
0 TDRS 12
1 39504U 14004A   19364.84907063 -.00000264 +00000-0 +00000-0 0  9993
2 39504 004.8676 337.4441 0002575 266.6248 119.7353 01.00272468020611
0 TDRS 12
1 39504U 14004A   19365.78223104 -.00000263  00000-0  00000+0 0  9992
2 39504   4.8663 337.4491 0002530 267.4222  95.7908  1.00272143 21793
0 ATLAS 5 CENTAUR R/B
1 39505U 14004B   19364.41533940 -.00000152 +00000-0 +00000-0 0  9992
2 39505 025.7845 014.2387 5751517 014.9702 356.7479 02.06526401044773
0 ABS 2
1 39508U 14006A   19364.87218818 -.00000083 +00000-0 +00000-0 0  9994
2 39508 000.0154 353.5410 0003984 337.0009 157.3759 01.00272083021625
0 ABS 2
1 39508U 14006A   19365.44645931 -.00000081  00000-0  00000+0 0  9995
2 39508   0.0165 359.5089 0004012 330.8883   4.8244  1.00272099 21654
0 ATHENA-FIDUS
1 39509U 14006B   19364.86477312 +.00000157 +00000-0 +00000-0 0  9991
2 39509 000.0156 072.8497 0001218 229.3957 145.8638 01.00270587021419
0 ATHENA-FIDUS
1 39509U 14006B   19365.79793354  .00000160  00000-0  00000+0 0  9994
2 39509   0.0178 301.3481 0001255 359.7986 123.8134  1.00268859 21840
0 ARIANE 5 R/B
1 39510U 14006C   19365.59640528  .00003249  00000-0  69633-3 0  9990
2 39510   6.3856  81.7199 7226468 193.2489 125.4903  2.35683919 50098
0 ARIANE 5 R/B
1 39510U 14006C   19364.75098361 +.00003473 +00000-0 +73306-3 0  9990
2 39510 006.3817 082.0822 7226640 192.5272 128.1974 02.35677822049818
0 ARIANE 5 DEB (SYLDA)
1 39511U 14006D   19364.63751623 +.00030677 +00000-0 +25272-2 0  9999
2 39511 005.6756 118.3205 6195329 122.4483 312.2305 03.79167790063687
0 ARIANE 5 DEB (SYLDA)
1 39511U 14006D   19365.42764972  .00034075  00000-0  28248-2 0  9990
2 39511   5.6763 117.6775 6194835 123.7051 310.8385  3.79219881 63934
0 TURKSAT 4A
1 39522U 14007A   19365.43982937  .00000151  00000-0  00000+0 0  9998
2 39522   0.0556 270.8635 0004897   2.7404  26.2944  1.00270748 21543
0 TURKSAT 4A
1 39522U 14007A   19364.86555824 +.00000150 +00000-0 +00000-0 0  9995
2 39522 000.0568 271.3346 0004865 002.2462 179.0167 01.00270461021327
0 BREEZE-M DEB (TANK)
1 39524U 14007C   19364.55081233 +.00000403 +00000-0 +33213-3 0  9997
2 39524 049.3232 121.3346 6124500 195.5971 130.7483 03.79868186080036
0 BREEZE-M DEB (TANK)
1 39524U 14007C   19365.60283406  .00000448  00000-0  31691-3 0  9997
2 39524  49.3235 120.8068 6124431 196.0528 129.4134  3.79869251 80448
0 NAVSTAR 69 (USA 248)
1 39533U 14008A   19364.41279543  .00000003  00000-0  00000+0 0  9996
2 39533  53.8242 245.7554 0042152 195.2459 164.7066  2.00559035 42881
0 NAVSTAR 69 (USA 248)
1 39533U 14008A   19364.41279543 +.00000003 +00000-0 +00000-0 0  9997
2 39533 053.8242 245.7554 0042152 195.2459 164.7066 02.00559035042353
0 DELTA 4 R/B
1 39534U 14008B   19363.93805417 -.00000005 +00000-0 +00000-0 0  9992
2 39534 053.4326 253.8039 0234904 072.2017 290.4236 01.90803264040801
0 DELTA 4 R/B
1 39534U 14008B   19364.98621216 -.00000010  00000-0  00000+0 0  9996
2 39534  53.4321 253.7648 0234917  72.2212 290.4023  1.90803316 40804
0 FENGYUN 1C DEB
1 39539U 99025EWG 19365.60234019  .00001718  00000-0  19255-3 0  9995
2 39539  98.9402 121.2854 0105496 176.5137 183.6833 14.84536143351348
0 FENGYUN 1C DEB
1 39539U 99025EWG 19364.59130929 +.00001758 +00000-0 +19691-3 0  9995
2 39539 098.9403 120.1526 0105465 179.7103 180.4188 14.84532605292269
0 FENGYUN 1C DEB
1 39540U 99025EWH 19365.38362449  .00000111  00000-0  27226-3 0  9994
2 39540 106.1796  66.6638 0436465  66.3006   1.4064 13.25127633402258
0 COSMOS 2251 DEB
1 39546U 93036BUC 19365.47818498  .00000479  00000-0  10064-3 0  9995
2 39546  74.0041  30.2721 0074067   4.0552 356.1197 14.60888518481789
0 COSMOS 2251 DEB
1 39546U 93036BUC 19364.79339278 +.00000479 +00000-0 +10070-3 0  9990
2 39546 074.0041 031.5833 0074026 005.5469 354.6498 14.60887910325223
0 COSMOS 2251 DEB
1 39547U 93036BUD 19364.29389097 +.00000681 +00000-0 +18919-3 0  9995
2 39547 074.0215 212.1433 0015909 119.5848 357.5463 14.48281364322938
0 COSMOS 2251 DEB
1 39548U 93036BUE 19365.74481778  .00001738  00000-0  34388-3 0  9998
2 39548  74.0114 130.4831 0012981 275.0785 153.8022 14.63098896416234
0 COSMOS 2251 DEB
1 39549U 93036BUF 19365.76467684  .00001449  00000-0  30518-3 0  9991
2 39549  74.0224 151.3067 0018535 277.4141 146.4583 14.60341723441250
0 COSMOS 2251 DEB
1 39549U 93036BUF 19364.80610163 +.00001466 +00000-0 +30873-3 0  9990
2 39549 074.0224 153.1382 0018436 279.3232 147.1770 14.60339299324231
0 COSMOS 2251 DEB
1 39552U 93036BUJ 19364.91852203 +.00000736 +00000-0 +14728-3 0  9999
2 39552 074.0360 060.9818 0034709 057.1767 116.2946 14.63349715325365
0 COSMOS 2251 DEB
1 39554U 93036BUL 19364.66067575 +.00000506 +00000-0 +12416-3 0  9990
2 39554 074.0350 138.2230 0019533 098.4757 274.4337 14.54867164325159
0 COSMOS 2251 DEB
1 39585U 93036BUQ 19364.53395371 +.00000096 +00000-0 +29324-4 0  9999
2 39585 074.0440 095.2954 0072227 046.5541 314.1599 14.53360401309001
0 COSMOS 2251 DEB
1 39587U 93036BUS 19365.75370349  .00001414  00000-0  98684-4 0  9994
2 39587  74.0118   3.5154 0109621 295.7194  63.2708 15.01832516525649
0 THORAD AGENA D DEB
1 39592U 70025QT  19364.79115802 +.00000342 +00000-0 +57755-3 0  9999
2 39592 100.0068 299.2407 0001326 043.6693 316.4547 13.53426879289378
0 IRIDIUM 33 DEB
1 39594U 97051AAG 19364.43013330 +.00000823 +00000-0 +22024-3 0  9998
2 39594 086.4077 252.8639 0011667 311.2883 048.7314 14.47148399321717
0 BREEZE-M DEB
1 39599U 08011DK  19365.47541555  .00002561  00000-0  14844+0 0  9999
2 39599  49.6130  98.0601 6258625 206.9098  98.4434  3.14582612 70283
0 CZ-3C DEB
1 39600U 10057X   19363.88651887 -.00000021 +00000-0 +17132-3 0  9995
2 39600 019.7337 126.3476 7228889 258.7731 019.4436 02.24516129050112
0 METEOR 2-5 DEB
1 39604U 79095CF  19365.42750292  .00002033  00000-0  25037-3 0  9995
2 39604  81.2023 256.5625 0012215  78.5313  46.4686 14.82553047888118
0 METEOR 2-5 DEB
1 39605U 79095CG  19364.27293036 +.00000866 +00000-0 +41118-3 0  9996
2 39605 081.1978 330.3732 0014266 345.5094 080.9045 14.18682488315532
0 METEOR 2-5 DEB
1 39608U 79095CK  19365.63764614  .00001176  00000-0  56832-3 0  9999
2 39608  81.2050 331.6990 0019145  26.9246 333.2918 14.17914835393337
0 OPS 4682 DEB
1 39609U 65027FS  19364.85855574 +.00000252 +00000-0 +84850-3 0  9994
2 39609 090.2927 318.1363 0027126 143.7507 243.5643 12.96950879290248
0 ERS 1 DEB
1 39610U 91050S   19364.86175612 +.00001510 +00000-0 +37746-3 0  9990
2 39610 098.4482 330.2731 0026364 314.3467 045.5568 14.52796392312001
